[{"OBJECT_NAME":"STARLINK-1559","OBJECT_ID":"2020-055BC","EPOCH":"2026-03-09T05:36:23.522976","MEAN_MOTION":15.29461733,"ECCENTRICITY":0.0004229,"INCLINATION":53.0254,"RA_OF_ASC_NODE":76.0659,"ARG_OF_PERICENTER":33.971,"MEAN_ANOMALY":326.1559,"EPHEMERIS_TYPE":0,"CLASSIFICATION_TYPE":"U","NORAD_CAT_ID":46077,"ELEMENT_SET_NO":999,"REV_AT_EPOCH":30951,"BSTAR":0.0014778793,"MEAN_MOTION_DOT":0.00042685,"MEAN_MOTION_DDOT":0},{"OBJECT_NAME":"STARLINK-32510","OBJECT_ID":"2024-216J","EPOCH":"2026-03-09T12:38:39.435648","MEAN_MOTION":15.27549679,"ECCENTRICITY":9.599e-5,"INCLINATION":42.9971,"RA_OF_ASC_NODE":264.7697,"ARG_OF_PERICENTER":195.8026,"MEAN_ANOMALY":164.2795,"EPHEMERIS_TYPE":0,"CLASSIFICATION_TYPE":"U","NORAD_CAT_ID":62040,"ELEMENT_SET_NO":999,"REV_AT_EPOCH":7376,"BSTAR":0.00093471187,"MEAN_MOTION_DOT":0.00025524,"MEAN_MOTION_DDOT":0}]
